FENGYUN 1C DEB          
1 36231U 99025DVG 17345.88522284 -.00000015  00000-0  15277-4 0  9992
2 36231  98.7483  28.4469 0061738   8.6147 351.6069 14.10778759443213
